STARLINK-4510           
1 53405U 22097T   26068.52839072  .00001204  00000+0  93722-4 0  9998
2 53405  53.2169 124.8466 0001243  90.9214 269.1921 15.08834451198491
LEMUR-2-STELLA          
1 60533U 24149BT  26068.72657350  .00013685  00000+0  85776-3 0  9992
2 60533  97.6764 150.9122 0001299  95.1117 265.0260 15.09464064 85488
